BEIDOU 3 (C01)          
1 36287U 10001A   21036.65862486 -.00000287  00000-0  00000-0 0  9993
2 36287   1.6829  40.6349 0002965  99.6379  13.2634  1.00270118 40547
BEIDOU 5 (C06)          
1 36828U 10036A   21036.23626512 -.00000082  00000-0  00000-0 0  9997
2 36828  54.1730 180.8103 0102300 233.1887 281.1226  1.00243045 38583
BEIDOU 6 (C04)          
1 37210U 10057A   21036.04874225 -.00000115  00000-0  00000-0 0  9998
2 37210   0.9095  52.1020 0005336 196.3768  64.5537  1.00271824 37640
BEIDOU 7 (C07)          
1 37256U 10068A   21037.37345584 -.00000209  00000-0  00000+0 0  9991
2 37256  51.0839 295.5572 0081902 216.8362 235.6675  1.00297854 37172
BEIDOU 8 (C08)          
1 37384U 11013A   21036.23392831 -.00000183  00000-0  00000-0 0  9997
2 37384  59.5925  59.2346 0055062 206.5723  72.4094  1.00291428 36039
BEIDOU 9 (C09)          
1 37763U 11038A   21037.36696281 -.00000049  00000-0  00000+0 0  9996
2 37763  54.4629 183.2366 0077311 223.7076 314.8406  1.00291779 35025
BEIDOU 10 (C10)         
1 37948U 11073A   21036.83036248 -.00000152  00000-0  00000-0 0  9998
2 37948  51.1882 295.1783 0069915 215.7475  19.8113  1.00283131 33776
BEIDOU 11 (C05)         
1 38091U 12008A   21036.85759524  .00000050  00000-0  00000-0 0  9994
2 38091   1.9744  71.5699 0004005 249.3261 182.7269  1.00273553 32850
BEIDOU 12 (C11)         
1 38250U 12018A   21037.34358443 -.00000081  00000-0  00000+0 0  9996
2 38250  56.7565   9.9411 0024266 250.6546 340.0138  1.86234380 59846
BEIDOU 13 (C12)         
1 38251U 12018B   21036.74007933 -.00000078  00000-0  00000-0 0  9992
2 38251  56.6800   9.3181 0015281 255.7396 334.7509  1.86234224 59830
BEIDOU 15 (C14)         
1 38775U 12050B   21036.61252105 -.00000036  00000-0  00000-0 0  9992
2 38775  55.1495 128.4295 0013372 318.6155  23.7147  1.86232398 57207
BEIDOU 16 (C02)         
1 38953U 12059A   21036.93868941 -.00000181  00000-0  00000+0 0  9995
2 38953   1.6549  84.8488 0009628 261.3757 211.9515  1.00269770 30426
BEIDOU 17 (C31)         
1 40549U 15019A   21036.49601861 -.00000183  00000-0  00000+0 0  9997
2 40549  52.7039 318.5151 0036710 189.3416 260.2672  1.00294955 21455
BEIDOU 18 (C57)         
1 40748U 15037A   21036.79984503 -.00000081  00000-0  00000-0 0  9996
2 40748  55.9447   8.4825 0004905 331.4684 209.1453  1.86233496 37661
BEIDOU 19 (C58)         
1 40749U 15037B   21036.67016238 -.00000080  00000-0  00000-0 0  9994
2 40749  55.9486   8.4739 0007214 305.2481 285.0889  1.86232291 37656
BEIDOU 20 (C18)         
1 40938U 15053A   21037.05930947 -.00000115  00000-0  00000+0 0  9995
2 40938  52.2627 281.5638 0045942 190.8711 141.3290  1.00266230 19734
BEIDOU IGSO-6 (C13)     
1 41434U 16021A   21037.51090219 -.00000136  00000-0  00000+0 0  9996
2 41434  57.3741  58.0219 0041350 215.4922 140.7373  1.00295396 17859
BEIDOU-2 G7 (C03)       
1 41586U 16037A   21036.63382781 -.00000361  00000-0  00000-0 0  9992
2 41586   1.9775  69.6575 0009051   0.3638  44.6453  1.00274455 17167
BEIDOU-3 M1 (C19)       
1 43001U 17069A   21036.71812551 -.00000037  00000-0  00000-0 0  9994
2 43001  55.3045 128.3613 0009181 283.8087 285.6928  1.86231700 22148
BEIDOU-3 M2 (C20)       
1 43002U 17069B   21037.37960777 -.00000044  00000-0  00000+0 0  9999
2 43002  55.3040 128.3734 0007576 308.6495  27.9712  1.86231505 22144
BEIDOU-3 M3 (C27)       
1 43107U 18003A   21037.24685647 -.00000084  00000-0  00000+0 0  9994
2 43107  55.3852   9.6063 0004059  23.8390  29.6553  1.86232594 20914
BEIDOU-3 M4 (C28)       
1 43108U 18003B   21037.33726057 -.00000085  00000-0  00000+0 0  9997
2 43108  55.3785   9.5942 0004280 258.1922 261.0944  1.86232561 20915
BEIDOU-3 M5 (C21)       
1 43207U 18018A   21036.47318670 -.00000034  00000-0  00000-0 0  9990
2 43207  55.2623 128.4989 0005505 328.6586  31.3254  1.86231298 20285
BEIDOU-3 M6 (C22)       
1 43208U 18018B   21036.53991049 -.00000035  00000-0  00000-0 0  9996
2 43208  55.2618 128.5015 0007791 295.1666  64.7693  1.86231447 20280
BEIDOU-3 M7 (C29)       
1 43245U 18029A   21036.76625919 -.00000083  00000-0  00000-0 0  9997
2 43245  55.3213   7.4190 0001671 298.1653  63.2396  1.86232646 19444
BEIDOU-3 M8 (C30)       
1 43246U 18029B   21037.38763329 -.00000087  00000-0  10000-3 0  9993
2 43246  55.3188   7.4305 0005283 334.2297 129.8589  1.86232681 19445
BEIDOU IGSO-7 (C16)     
1 43539U 18057A   21036.89721166 -.00000108  00000-0  00000-0 0  9997
2 43539  55.0554 180.1371 0031788 212.2493 179.6545  1.00253544  9539
BEIDOU-3 M9 (C23)       
1 43581U 18062A   21036.80212544  .00000084  00000-0  00000-0 0  9998
2 43581  54.4565 249.1166 0002747 316.0888 325.2217  1.86231947 17174
BEIDOU-3 M10 (C24)      
1 43582U 18062B   21036.67076226  .00000083  00000-0  00000-0 0  9998
2 43582  54.4569 249.1112 0006586  10.5158 273.9569  1.86232296 17178
BEIDOU-3 M11 (C25)      
1 43602U 18067A   21037.22120543  .00000087  00000-0  00000+0 0  9993
2 43602  54.5283 247.6630 0007454   4.1804 331.7687  1.86231645 16670
BEIDOU-3 M12 (C26)      
1 43603U 18067B   21037.15596226  .00000087  00000-0  00000+0 0  9991
2 43603  54.5273 247.6339 0004681 358.7702 203.9281  1.86231615 16699
BEIDOU-3 M13 (C32)      
1 43622U 18072A   21037.02607802 -.00000041  00000-0  00000+0 0  9998
2 43622  55.2284 128.0553 0006126 279.7672 226.1646  1.86231443 16202
BEIDOU-3 M14 (C33)      
1 43623U 18072B   21037.33230948 -.00000044  00000-0  00000+0 0  9999
2 43623  55.2289 128.0350 0003928 308.1226 133.3651  1.86231528 16212
BEIDOU-3 M15 (C34)      
1 43647U 18078A   21034.32896204 -.00000070  00000-0  10000-3 0  9994
2 43647  55.2144   7.7052 0007287 340.0293 143.0427  1.86232826 15660
BEIDOU-3 M16 (C35)      
1 43648U 18078B   21036.77942779 -.00000083  00000-0  10000-3 0  9999
2 43648  55.2111   7.6294 0005348 347.1697 247.5052  1.86232176 15723
BEIDOU-3 G1 (C59)       
1 43683U 18085A   21036.87382115 -.00000284  00000-0  00000-0 0  9998
2 43683   1.2868 241.1859 0002932  25.8081 323.7976  1.00267781  8435
BEIDOU-3 M17 (C36)      
1 43706U 18093A   21037.39647859  .00000086  00000-0  00000+0 0  9998
2 43706  54.5364 248.9452 0008028 280.3606 264.3957  1.86231932 15081
BEIDOU-3 M18 (C37)      
1 43707U 18093B   21037.21398844  .00000085  00000-0  00000+0 0  9996
2 43707  54.5376 248.9433 0007645 310.4767 202.6592  1.86232174 15080
BEIDOU-3 IGSO-1 (C38)   
1 44204U 19023A   21036.38786428 -.00000205  00000-0  00000+0 0  9994
2 44204  55.8285  58.3545 0017494 204.3742 126.9752  1.00279317  6723
BEIDOU-2 G8             
1 44231U 19027A   21037.18778156 -.00000253  00000-0  00000+0 0  9999
2 44231   0.4720 312.4967 0006749 268.4899 127.6728  1.00268701  6456
BEIDOU-3 IGSO-2 (C39)   
1 44337U 19035A   21036.82917736 -.00000105  00000-0  00000-0 0  9991
2 44337  55.0852 176.1823 0016958 185.0422 181.0626  1.00271102  6078
BEIDOU-3 M23 (C45)      
1 44542U 19061A   21037.54851920  .00000087  00000-0  10000-3 0  9992
2 44542  54.7619 248.9845 0008648 342.9232 347.9859  1.86231551  9347
BEIDOU-3 M24 (C46)      
1 44543U 19061B   21037.43394916  .00000086  00000-0  10000-3 0  9997
2 44543  54.7591 248.9590 0005767 340.0263 184.7446  1.86231889  9350
BEIDOU-3 IGSO-3         
1 44709U 19073A   21037.37409988 -.00000177  00000-0  00000+0 0  9990
2 44709  58.0455 301.5067 0019161 193.7847 243.3980  1.00264479  4839
BEIDOU-3 M21            
1 44793U 19078A   21037.05495178 -.00000085  00000-0  10000-3 0  9992
2 44793  55.0650   7.6933 0007093 348.3871 116.9438  1.86232353  8206
BEIDOU-3 M22            
1 44794U 19078B   21036.49880855 -.00000082  00000-0  10000-3 0  9997
2 44794  55.0418   7.7168 0005394 341.1826  22.0065  1.86232821  8194
BEIDOU-3 M19            
1 44864U 19090A   21037.36836338 -.00000045  00000-0  00000+0 0  9997
2 44864  55.1637 128.2789 0015508 261.6469 159.1616  1.86231810  7797
BEIDOU-3 M20            
1 44865U 19090B   21036.78333626 -.00000038  00000-0  00000-0 0  9998
2 44865  55.1639 128.3304 0014260 277.6071 200.8906  1.86231750  7760
BEIDOU-3 G2             
1 45344U 20017A   21036.50308312 -.00000141  00000-0  00000+0 0  9990
2 45344   2.6076 333.1880 0001670  36.6794  27.0830  1.00269683  3646
BEIDOU-3 G3             
1 45807U 20040A   21036.86788910 -.00000356  00000-0  00000-0 0  9994
2 45807   2.5868 298.3883 0010161  12.6095 248.1826  1.00273025  2450
